IRIDIUM 150             
1 43257U 18030J   24301.92962379  .00000022  00000+0  90477-6 0  9996
2 43257  86.4031 180.1034 0002293  78.5376 281.6077 14.34217009344557
IRIDIUM 143             
1 43258U 18030K   24301.91059467  .00000461  00000+0  15766-3 0  9993
2 43258  86.4032 180.1808 0002470  74.4905 285.6563 14.34219522344486
IRIDIUM 161             
1 43478U 18047C   24301.81447923  .00001368  00000+0  40052-3 0  9995
2 43478  86.4499 338.1294 0002147  95.2183 264.9263 14.43289791338970
IRIDIUM 152             
1 43479U 18047D   24302.51122483  .00000341  00000+0  11480-3 0  9998
2 43479  86.3976 337.6976 0002284  97.0863 263.0593 14.34213223336979
IRIDIUM 147             
1 43480U 18047E   24301.81988605  .00000788  00000+0  27414-3 0  9997
2 43480  86.3980 337.9813 0001951  99.4327 260.7089 14.34219214336868
IRIDIUM 110             
1 43481U 18047F   24302.38437010  .00001069  00000+0  37439-3 0  9991
2 43481  86.3977 337.8216 0002064 107.9521 252.1900 14.34229849336938
IRIDIUM 162             
1 43482U 18047G   24302.08551151  .00001350  00000+0  39530-3 0  9999
2 43482  86.4498 337.9145 0002095 101.5051 258.6385 14.43286296339000
IRIDIUM 160             
1 43569U 18061A   24302.26044007 -.00000021  00000+0 -14387-4 0  9998
2 43569  86.3922 306.2393 0001883  92.9958 267.1453 14.34216319327810
